STARLINK-2048           
1 48092U 21027A   22287.24211373  .00003461  00000+0  25111-3 0  9995
2 48092  53.0529 274.4690 0001836  64.7091 295.4088 15.06407289 85793
STARLINK-2404           
1 48093U 21027B   22287.13843593  .00012177  00000+0  83477-3 0  9992
2 48093  53.0550 339.8589 0001949  42.8402 317.2738 15.06409870 84870
STARLINK-2412           
1 48094U 21027C   22286.55880835  .00002267  00000+0  17111-3 0  9999
2 48094  53.0558 352.2619 0001691  50.1488 309.9650 15.06388413 85053
STARLINK-2414           
1 48095U 21027D   22286.56615517  .00004505  00000+0  32107-3 0  9993
2 48095  53.0567 352.2143 0002011  48.2966 311.8195 15.06405204 85067
STARLINK-2417           
1 48096U 21027E   22287.13749490  .00001221  00000+0  10084-3 0  9998
2 48096  53.0565 349.6507 0001768  46.7084 313.4052 15.06394731 84737
STARLINK-2418           
1 48097U 21027F   22286.65279670  .00003592  00000+0  25992-3 0  9990
2 48097  53.0543 331.8428 0001836  43.4210 316.6923 15.06401427 85341
STARLINK-2421           
1 48098U 21027G   22286.56341752  .00006314  00000+0  44253-3 0  9998
2 48098  53.0577 342.2345 0001918  49.7236 310.3920 15.06390174 85187
STARLINK-2428           
1 48099U 21027H   22286.88316482  .00005587  00000+0  39361-3 0  9991
2 48099  53.0555 350.8047 0001863  43.7793 316.3343 15.06404232 84690
STARLINK-2430           
1 48100U 21027J   22286.84444188  .00002299  00000+0  17317-3 0  9999
2 48100  53.0547 330.9734 0002233  40.0537 320.0616 15.06409585 85371
STARLINK-2436           
1 48101U 21027K   22286.56246981  .00005884  00000+0  41377-3 0  9996
2 48101  53.0554 342.2439 0002058  48.7908 311.3258 15.06381482 85190
STARLINK-2437           
1 48102U 21027L   22287.13565319  .00004636  00000+0  32986-3 0  9990
2 48102  53.0529 329.6669 0002166  32.3352 327.7770 15.06411418 85013
STARLINK-2438           
1 48103U 21027M   22287.14578036  .00005501  00000+0  38793-3 0  9996
2 48103  53.0554 329.6474 0002384  26.9712 333.1400 15.06399014 85015
STARLINK-2439           
1 48104U 21027N   22287.15546394  .00002583  00000+0  19226-3 0  9997
2 48104  53.0554 334.5767 0001860  51.1860 308.9295 15.06396645 84959
STARLINK-2440           
1 48105U 21027P   22287.19554458  .00004091  00000+0  29334-3 0  9999
2 48105  53.0527 279.4009 0001814  54.1629 305.9528 15.06401981 85723
STARLINK-2442           
1 48106U 21027Q   22286.84814369  .00002994  00000+0  21973-3 0  9992
2 48106  53.0559 330.9715 0001720  41.9371 318.1749 15.06408480 84978
STARLINK-2443           
1 48107U 21027R   22286.86289260  .00002653  00000+0  19691-3 0  9997
2 48107  53.0560 330.8944 0001741  49.9804 310.1337 15.06399775 84977
STARLINK-2444           
1 48108U 21027S   22286.57078654  .00001582  00000+0  12514-3 0  9996
2 48108  53.0552 342.2033 0002082  45.4298 314.6861 15.06388096 85181
STARLINK-2445           
1 48109U 21027T   22286.91634869  .00008947  00000+0  61940-3 0  9990
2 48109  53.0568 350.6523 0002542  35.4522 324.6635 15.06362439 84706
STARLINK-2447           
1 48110U 21027U   22286.89145149 -.00001106  00000+0 -55311-4 0  9995
2 48110  53.0563 340.7619 0001829  50.8134 309.3018 15.06421733 84849
STARLINK-2448           
1 48111U 21027V   22286.88407667  .00002618  00000+0  19457-3 0  9998
2 48111  53.0553 340.7772 0001719  51.3071 308.8072 15.06400370 84841
STARLINK-2449           
1 48112U 21027W   22287.14258420  .00004571  00000+0  32551-3 0  9990
2 48112  53.0557 354.7988 0002063  44.3478 315.7676 15.06408543 84663
STARLINK-2450           
1 48113U 21027X   22286.48139308  .00001839  00000+0  14238-3 0  9996
2 48113  53.0572 352.6061 0001592  55.6531 304.4609 15.06391332 85020
STARLINK-2451           
1 48114U 21027Y   22286.50856098  .00004557  00000+0  32461-3 0  9990
2 48114  53.0547 347.4742 0001759  53.5656 306.5495 15.06401727 85117
STARLINK-2452           
1 48115U 21027Z   22286.40397093  .00001993  00000+0  15268-3 0  9992
2 48115  53.0559 342.9540 0001713  43.5207 316.5917 15.06395486 85167
STARLINK-2454           
1 48116U 21027AA  22286.87578823  .00002990  00000+0  21954-3 0  9993
2 48116  53.0571 350.8207 0001974  47.2450 312.8705 15.06401300 85099
STARLINK-2455           
1 48117U 21027AB  22286.84720678  .00002686  00000+0  19918-3 0  9997
2 48117  53.0550 330.9578 0001761  48.7607 311.3533 15.06401168 85377
STARLINK-2458           
1 48118U 21027AC  22287.05824973  .00002276  00000+0  17165-3 0  9992
2 48118  53.0563 330.0166 0001869  52.0439 308.0719 15.06397715 85007
STARLINK-2459           
1 48119U 21027AD  22286.39013853  .00002724  00000+0  20165-3 0  9998
2 48119  53.0542 333.0142 0002536  27.2777 332.8344 15.06407678 85293
STARLINK-2460           
1 48120U 21027AE  22286.66200680  .00002390  00000+0  17928-3 0  9998
2 48120  53.0553 351.7972 0001783  50.0834 310.0312 15.06400660 85079
STARLINK-2462           
1 48121U 21027AF  22286.56709685  .00002083  00000+0  15868-3 0  9997
2 48121  53.0563 342.2185 0001635  53.5654 306.5485 15.06397881 85189
STARLINK-2463           
1 48122U 21027AG  22286.83109928  .00003236  00000+0  23608-3 0  9994
2 48122  53.0555 335.9984 0002033  40.1153 319.9986 15.06396975 85307
STARLINK-2464           
1 48123U 21027AH  22286.84079458 -.00000402  00000+0 -81097-5 0  9992
2 48123  53.0563 330.9949 0002038  46.9348 313.1811 15.06378933 84966
STARLINK-2465           
1 48124U 21027AJ  22286.97255661  .00001066  00000+0  90485-4 0  9994
2 48124  53.0548 340.3975 0002016  46.9704 313.1454 15.06398654 84859
STARLINK-2466           
1 48125U 21027AK  22286.45562848  .00001300  00000+0  10618-3 0  9996
2 48125  53.0564 352.9607 0001720  56.3143 303.8010 15.06399904 85036
STARLINK-2467           
1 48126U 21027AL  22286.60858639  .00008747  00000+0  60554-3 0  9996
2 48126  53.0558 332.0328 0001800  43.5215 316.5916 15.06389534 85344
STARLINK-2468           
1 48127U 21027AM  22286.66568884  .00002329  00000+0  17521-3 0  9999
2 48127  53.0551 351.7874 0001977  51.9239 308.1928 15.06406325 85063
STARLINK-2469           
1 48128U 21027AN  22286.71269852  .00001614  00000+0  12726-3 0  9997
2 48128  53.0528 281.6560 0002089  59.9874 300.1322 15.06398780 86043
STARLINK-2471           
1 48129U 21027AP  22286.99006291  .00010655  00000+0  73276-3 0  9996
2 48129  53.0535 350.3265 0002141  52.2644 307.8539 15.06417258 84716
STARLINK-2472           
1 48130U 21027AQ  22286.71405341  .00002074  00000+0  15812-3 0  9995
2 48130  53.0541 356.5672 0001772  48.0515 312.0625 15.06390350 85004
STARLINK-2473           
1 48131U 21027AR  22287.13197123  .00004037  00000+0  28979-3 0  9998
2 48131  53.0547 329.6694 0002111  41.0271 319.0877 15.06401379 85017
STARLINK-2474           
1 48132U 21027AS  22286.91265775  .00005088  00000+0  36029-3 0  9995
2 48132  53.0551 350.6672 0001858  55.5625 304.5539 15.06394089 84701
STARLINK-2475           
1 48133U 21027AT  22287.17435936  .00003788  00000+0  27303-3 0  9993
2 48133  53.0534 349.4920 0001868  53.2094 306.9066 15.06404493 84747
STARLINK-2476           
1 48134U 21027AU  22286.36344617  .00014318  00000+0  97771-3 0  9996
2 48134  53.0544 353.1394 0001816  60.4084 299.7086 15.06417015 85014
STARLINK-2478           
1 48135U 21027AV  22286.56389486  .00002941  00000+0  21632-3 0  9994
2 48135  53.0563 357.3937 0001747  49.9640 310.1502 15.06393537 84975
STARLINK-2479           
1 48136U 21027AW  22287.11812114  .00003059  00000+0  22413-3 0  9995
2 48136  53.0552 349.7313 0001897  44.1452 315.9688 15.06406264 84735
STARLINK-2480           
1 48137U 21027AX  22287.14302520  .00000967  00000+0  83828-4 0  9997
2 48137  53.0552 329.6063 0001858  53.5061 306.6099 15.06397515 85015
STARLINK-2481           
1 48138U 21027AY  22286.70624671  .00002262  00000+0  17081-3 0  9990
2 48138  53.0552 351.5949 0002160  42.9512 317.1646 15.06383858 85079
STARLINK-2482           
1 48139U 21027AZ  22286.82971532 -.00000510  00000+0 -15369-4 0  9999
2 48139  53.0558 331.0462 0001812  46.6254 313.4886 15.06391715 84970
STARLINK-2483           
1 48140U 21027BA  22286.99649001  .00004941  00000+0  35032-3 0  9990
2 48140  53.0553 350.2969 0001752  49.9748 310.1394 15.06404977 84714
STARLINK-2484           
1 48141U 21027BB  22286.55512608  .00002154  00000+0  16351-3 0  9992
2 48141  53.0562 352.2587 0001975  49.3399 310.7761 15.06385843 85069
STARLINK-2485           
1 48142U 21027BC  22286.62699764  .00000823  00000+0  74190-4 0  9997
2 48142  53.0562 331.9524 0001708  57.1150 303.0004 15.06393948 85342
STARLINK-2486           
1 48143U 21027BD  22287.20703883  .00003738  00000+0  26967-3 0  9997
2 48143  53.0526 284.3502 0001757  60.0040 300.1123 15.06406769 85655
STARLINK-2487           
1 48144U 21027BE  22286.50167355  .00002358  00000+0  17720-3 0  9992
2 48144  53.0551 332.5209 0001738  47.8129 312.3008 15.06387164 85311
STARLINK-2488           
1 48145U 21027BF  22286.83709041  .00004362  00000+0  31160-3 0  9994
2 48145  53.0558 331.0130 0001805  46.7402 313.3738 15.06395534 85370
STARLINK-2489           
1 48146U 21027BG  22286.70255276  .00004230  00000+0  30276-3 0  9998
2 48146  53.0551 351.6193 0002232  45.4847 314.6324 15.06397058 85070
STARLINK-2490           
1 48147U 21027BH  22286.96563525  .00002220  00000+0  16786-3 0  9993
2 48147  53.0559 355.4396 0002134  38.4216 321.6925 15.06403666 84649
STARLINK-2491           
1 48148U 21027BJ  22286.60303682  .00001971  00000+0  15121-3 0  9995
2 48148  53.0558 352.0449 0001766  46.8051 313.3085 15.06389466 85042
STARLINK-2492           
1 48149U 21027BK  22286.41690108  .00002923  00000+0  21500-3 0  9993
2 48149  53.0543 332.8961 0002260  46.7461 313.3717 15.06406606 85303
STARLINK-2493           
1 48150U 21027BL  22286.81866417  .00006952  00000+0  48505-3 0  9997
2 48150  53.0538 331.0799 0001998  41.7056 318.4085 15.06408517 85375
STARLINK-2503           
1 48151U 21027BM  22286.82234944  .00002866  00000+0  21124-3 0  9991
2 48151  53.0567 331.0736 0002335  42.6552 317.4618 15.06395565 85375
